NORAD_CAT_ID,OBJECT_NAME,OBJECT_TYPE,EPOCH,MEAN_MOTION,ECCENTRICITY,INCLINATION,RA_OF_ASC_NODE,ARG_OF_PERICENTER,MEAN_ANOMALY,BSTAR,MEAN_MOTION_DOT,MEAN_MOTION_DDOT,TLE_LINE0,TLE_LINE1,TLE_LINE2,SEMIMAJOR_AXIS,PERIOD,APOGEE,PERIGEE,DECAYED
52865.0,STARLINK-4274,PAYLOAD,2023-10-29 06:37:13,15.088539,0.0001538,53.215,295.6474,89.3006,270.8162,0.00024664,3.641e-05,0.0,0 STARLINK-4274,1 52865U 22062AM  23302.27584852  .00003641  00000-0  24664-3 0  9998,2 52865  53.2150 295.6474 0001538  89.3006 270.8162 15.08853900 75731,6917.838,95.437,540.767,538.639,0.0
52865.0,STARLINK-4274,PAYLOAD,2023-10-29 16:09:32,15.08841686,0.0001591,53.2157,293.8634,90.8861,269.2314,0.00019496,2.816e-05,0.0,0 STARLINK-4274,1 52865U 22062AM  23302.67329357  .00002816  00000-0  19496-3 0  9999,2 52865  53.2157 293.8634 0001591  90.8861 269.2314 15.08841686 76281,6917.875,95.437,540.841,538.64,0.0
52865.0,STARLINK-4274,PAYLOAD,2023-10-30 16:00:19,15.08842351,0.0001561,53.2162,289.4044,97.3927,262.7242,0.00015139,2.122e-05,0.0,0 STARLINK-4274,1 52865U 22062AM  23303.66689624  .00002122  00000-0  15139-3 0  9995,2 52865  53.2162 289.4044 0001561  97.3927 262.7242 15.08842351 76430,6917.873,95.437,540.818,538.658,0.0
52865.0,STARLINK-4274,PAYLOAD,2023-10-31 04:43:25,15.08834231,0.0001636,53.2154,287.027,99.372,260.7457,-2.3268e-05,-6.58e-06,0.0,0 STARLINK-4274,1 52865U 22062AM  23304.19682186 -.00000658  00000-0 -23268-4 0  9997,2 52865  53.2154 287.0270 0001636  99.3720 260.7457 15.08834231 76515,6917.898,95.438,540.895,538.631,0.0
52865.0,STARLINK-4274,PAYLOAD,2023-10-31 06:18:48,15.08833475,0.000166,53.2154,286.7294,102.032,258.0858,1.7118e-05,-1.6e-07,0.0,0 STARLINK-4274,1 52865U 22062AM  23304.26306194 -.00000016  00000-0  17118-4 0  9991,2 52865  53.2154 286.7294 0001660 102.0320 258.0858 15.08833475 76033,6917.9,95.438,540.914,538.617,0.0
52865.0,STARLINK-4274,PAYLOAD,2023-10-31 15:51:07,15.08838394,0.0001634,53.2158,284.9446,95.8607,264.2571,0.00025067,3.703e-05,0.0,0 STARLINK-4274,1 52865U 22062AM  23304.66050364  .00003703  00000-0  25067-3 0  9996,2 52865  53.2158 284.9446 0001634  95.8607 264.2571 15.08838394 76096,6917.885,95.438,540.881,538.62,0.0
52865.0,STARLINK-4274,PAYLOAD,2023-11-01 07:44:58,15.08853575,0.0001596,53.2155,281.9706,92.2748,267.8427,0.0007803,0.00012157,0.0,0 STARLINK-4274,1 52865U 22062AM  23305.32290271  .00012157  00000-0  78030-3 0  9994,2 52865  53.2155 281.9706 0001596  92.2748 267.8427 15.08853575 76685,6917.839,95.437,540.808,538.6,0.0
52865.0,STARLINK-4274,PAYLOAD,2023-11-01 15:41:54,15.08843544,0.0001772,53.2163,280.4808,84.715,275.4044,0.00021412,3.122e-05,0.0,0 STARLINK-4274,1 52865U 22062AM  23305.65410421  .00003122  00000-0  21412-3 0  9995,2 52865  53.2163 280.4808 0001772  84.7150 275.4044 15.08843544 76731,6917.87,95.437,540.96,538.509,0.0
52865.0,STARLINK-4274,PAYLOAD,2023-11-01 22:03:27,15.08843252,0.0001839,53.2168,279.2943,85.4529,274.6673,0.00020183,2.926e-05,0.0,0 STARLINK-4274,1 52865U 22062AM  23305.91906453  .00002926  00000-0  20183-3 0  9994,2 52865  53.2168 279.2943 0001839  85.4529 274.6673 15.08843252 76289,6917.87,95.437,541.008,538.463,0.0
52865.0,STARLINK-4274,PAYLOAD,2023-11-02 07:35:45,15.08857145,0.0001591,53.2154,277.509,89.0773,271.0402,0.00050412,7.748e-05,0.0,0 STARLINK-4274,1 52865U 22062AM  23306.31649954  .00007748  00000-0  50412-3 0  9994,2 52865  53.2154 277.5090 0001591  89.0773 271.0402 15.08857145 76348,6917.828,95.436,540.794,538.592,0.0
52865.0,STARLINK-4274,PAYLOAD,2023-11-02 15:32:41,15.08847283,0.0001548,53.216,276.0222,93.9999,266.117,0.00024576,3.626e-05,0.0,0 STARLINK-4274,1 52865U 22062AM  23306.64770125  .00003626  00000-0  24576-3 0  9998,2 52865  53.2160 276.0222 0001548  93.9999 266.1170 15.08847283 76396,6917.858,95.437,540.794,538.652,0.0
52865.0,STARLINK-4274,PAYLOAD,2023-11-03 04:15:46,15.08852094,0.0001708,53.2161,273.6405,105.5098,254.6083,0.00042532,6.49e-05,0.0,0 STARLINK-4274,1 52865U 22062AM  23307.17761893  .00006490  00000-0  42532-3 0  9993,2 52865  53.2161 273.6405 0001708 105.5098 254.6083 15.08852094 76965,6917.843,95.437,540.89,538.527,0.0
52865.0,STARLINK-4274,PAYLOAD,2023-11-03 15:23:28,15.08840765,0.000173,53.2156,271.5613,94.3115,265.8075,0.00010226,1.34e-05,0.0,0 STARLINK-4274,1 52865U 22062AM  23307.64130282  .00001340  00000-0  10226-3 0  9991,2 52865  53.2156 271.5613 0001730  94.3115 265.8075 15.08840765 77033,6917.878,95.438,540.94,538.546,0.0
52865.0,STARLINK-4274,PAYLOAD,2023-11-03 21:45:01,15.08841725,0.0001802,53.2154,270.3712,99.0509,261.0687,0.00014043,1.948e-05,0.0,0 STARLINK-4274,1 52865U 22062AM  23307.90626348  .00001948  00000-0  14043-3 0  9998,2 52865  53.2154 270.3712 0001802  99.0509 261.0687 15.08841725 76580,6917.875,95.437,540.987,538.494,0.0
52865.0,STARLINK-4274,PAYLOAD,2023-11-04 04:06:33,15.08839472,0.0001692,53.2157,269.1818,100.0164,260.1019,0.00022106,3.232e-05,0.0,0 STARLINK-4274,1 52865U 22062AM  23308.17122490  .00003232  00000-0  22106-3 0  9994,2 52865  53.2157 269.1818 0001692 100.0164 260.1019 15.08839472 76623,6917.882,95.438,540.918,538.576,0.0
52865.0,STARLINK-4274,PAYLOAD,2023-11-05 03:57:20,15.08856163,0.0001571,53.2165,264.7225,94.8855,265.2317,0.0004605,7.052e-05,0.0,0 STARLINK-4274,1 52865U 22062AM  23309.16482200  .00007052  00000-0  46050-3 0  9990,2 52865  53.2165 264.7225 0001571  94.8855 265.2317 15.08856163 77262,6917.831,95.437,540.783,538.609,0.0
52865.0,STARLINK-4274,PAYLOAD,2023-11-05 07:08:06,15.08864153,0.0001507,53.2158,264.1265,91.8774,268.2391,0.00081979,0.00012792,0.0,0 STARLINK-4274,1 52865U 22062AM  23309.29730088  .00012792  00000-0  81979-3 0  9990,2 52865  53.2158 264.1265 0001507  91.8774 268.2391 15.08864153 76798,6917.807,95.436,540.714,538.629,0.0
52865.0,STARLINK-4274,PAYLOAD,2023-11-06 02:12:42,15.08903105,0.0002851,53.2164,260.5589,135.4616,224.6606,0.0016242,0.00025702,0.0,0 STARLINK-4274,1 52865U 22062AM  23310.09216261  .00025702  00000-0  16242-2 0  9997,2 52865  53.2164 260.5589 0002851 135.4616 224.6606 15.08903105 77402,6917.688,95.434,541.525,537.58,0.0
52865.0,STARLINK-4274,PAYLOAD,2023-11-06 13:20:23,15.08890398,0.0001869,53.2167,258.4769,71.9873,288.1323,0.0007183,0.00011178,0.0,0 STARLINK-4274,1 52865U 22062AM  23310.55583095  .00011178  00000-0  71830-3 0  9997,2 52865  53.2167 258.4769 0001869  71.9873 288.1323 15.08890398 76980,6917.726,95.434,540.884,538.298,0.0
52865.0,STARLINK-4274,PAYLOAD,2023-11-07 03:38:53,15.08817643,0.0001202,53.2158,255.796,78.5771,281.5356,-0.0010625,-0.00017147,0.0,0 STARLINK-4274,1 52865U 22062AM  23311.15200315 -.00017147  00000-0 -10625-2 0  9993,2 52865  53.2158 255.7960 0001202  78.5771 281.5356 15.08817643 77564,6917.949,95.439,540.645,538.982,0.0
52865.0,STARLINK-4274,PAYLOAD,2023-11-07 13:11:12,15.0881168,0.0001313,53.216,254.0159,90.8377,269.2766,-0.00072093,-0.00011734,0.0,0 STARLINK-4274,1 52865U 22062AM  23311.54945550 -.00011734  00000-0 -72093-3 0  9997,2 52865  53.2160 254.0159 0001313  90.8377 269.2766 15.08811680 77137,6917.967,95.439,540.74,538.924,0.0
52865.0,STARLINK-4274,PAYLOAD,2023-11-08 03:29:41,15.0882611,0.0001382,53.2157,251.3404,93.3266,266.7884,8.5658e-05,1.075e-05,0.0,0 STARLINK-4274,1 52865U 22062AM  23312.14562248  .00001075  00000-0  85658-4 0  9990,2 52865  53.2157 251.3404 0001382  93.3266 266.7884 15.08826110 77718,6917.923,95.438,540.744,538.832,0.0
52865.0,STARLINK-4274,PAYLOAD,2023-11-09 03:20:29,15.08845801,0.0001353,53.216,246.8802,86.9088,273.2059,0.00081563,0.00012719,0.0,0 STARLINK-4274,1 52865U 22062AM  23313.13922834  .00012719  00000-0  81563-3 0  9998,2 52865  53.2160 246.8802 0001353  86.9088 273.2059 15.08845801 77862,6917.863,95.437,540.664,538.792,0.0
52865.0,STARLINK-4274,PAYLOAD,2023-11-10 03:11:16,15.0884835,0.0001517,53.2161,242.4186,86.5942,273.5224,0.00029647,4.435e-05,0.0,0 STARLINK-4274,1 52865U 22062AM  23314.13282775  .00004435  00000-0  29647-3 0  9993,2 52865  53.2161 242.4186 0001517  86.5942 273.5224 15.08848350 78014,6917.855,95.437,540.769,538.67,0.0
52865.0,STARLINK-4274,PAYLOAD,2023-11-10 12:43:35,15.08844271,0.0001567,53.2155,240.6365,83.8045,276.3126,0.00018905,2.722e-05,0.0,0 STARLINK-4274,1 52865U 22062AM  23314.53026902  .00002722  00000-0  18905-3 0  9997,2 52865  53.2155 240.6365 0001567  83.8045 276.3126 15.08844271 77586,6917.867,95.437,540.816,538.648,0.0
52865.0,STARLINK-4274,PAYLOAD,2023-11-11 12:34:22,15.0883479,0.0002046,53.2182,236.1731,85.0587,275.0639,3.9157e-06,-2.26e-06,0.0,0 STARLINK-4274,1 52865U 22062AM  23315.52387482 -.00000226  00000-0  39157-5 0  9992,2 52865  53.2182 236.1731 0002046  85.0587 275.0639 15.08834790 77738,6917.896,95.438,541.177,538.346,0.0
52865.0,STARLINK-4274,PAYLOAD,2023-11-11 22:06:41,15.08829154,0.0001998,53.217,234.3852,106.5337,253.5875,0.00038108,5.78e-05,0.0,0 STARLINK-4274,1 52865U 22062AM  23315.92131757  .00005780  00000-0  38108-3 0  9990,2 52865  53.2170 234.3852 0001998 106.5337 253.5875 15.08829154 77793,6917.914,95.438,541.161,538.396,0.0
52865.0,STARLINK-4274,PAYLOAD,2023-11-12 04:28:14,15.08840284,0.0001735,53.2171,233.2002,90.0675,270.0516,9.9044e-05,1.289e-05,0.0,0 STARLINK-4274,1 52865U 22062AM  23316.18627402  .00001289  00000-0  99044-4 0  9993,2 52865  53.2171 233.2002 0001735  90.0675 270.0516 15.08840284 77838,6917.88,95.438,540.945,538.544,0.0
52865.0,STARLINK-4274,PAYLOAD,2023-11-12 21:57:28,15.08842642,0.0001824,53.2173,229.9288,92.4462,267.6739,0.00016222,2.295e-05,0.0,0 STARLINK-4274,1 52865U 22062AM  23316.91491394  .00002295  00000-0  16222-3 0  9997,2 52865  53.2173 229.9288 0001824  92.4462 267.6739 15.08842642 77948,6917.872,95.437,540.999,538.475,0.0
52865.0,STARLINK-4274,PAYLOAD,2023-11-12 23:32:51,15.08843451,0.0001825,53.2174,229.6315,92.4551,267.665,0.00017185,2.448e-05,0.0,0 STARLINK-4274,1 52865U 22062AM  23316.98115362  .00002448  00000-0  17185-3 0  9991,2 52865  53.2174 229.6315 0001825  92.4551 267.6650 15.08843451 78444,6917.87,95.437,540.997,538.472,0.0
